{
  "type": "FeatureCollection",
  "graph_version": "demo-graph-v1",
  "is_demo": true,
  "crs_note": "WGS84 EPSG:4326; GeoJSON coordinates are [lng, lat]",
  "features": [
    {
      "type": "Feature",
      "properties": {"feature_type": "node", "node_id": "n1"},
      "geometry": {"type": "Point", "coordinates": [126.910000, 37.550000]}
    },
    {
      "type": "Feature",
      "properties": {"feature_type": "node", "node_id": "n2"},
      "geometry": {"type": "Point", "coordinates": [126.905000, 37.551500]}
    },
    {
      "type": "Feature",
      "properties": {"feature_type": "node", "node_id": "n3"},
      "geometry": {"type": "Point", "coordinates": [126.907000, 37.556000]}
    },
    {
      "type": "Feature",
      "properties": {"feature_type": "node", "node_id": "n4"},
      "geometry": {"type": "Point", "coordinates": [126.900000, 37.555000]}
    },
    {
      "type": "Feature",
      "properties": {"feature_type": "node", "node_id": "n5"},
      "geometry": {"type": "Point", "coordinates": [126.905000, 37.554000]}
    },
    {
      "type": "Feature",
      "properties": {
        "feature_type": "edge", "edge_id": "demo_edge_01", "from_node": "n1",
        "to_node": "n2", "distance_m": 600, "display_name": "독막로 인근 보행 구간",
        "walkable": true, "bidirectional": true
      },
      "geometry": {"type": "LineString", "coordinates": [[126.910000, 37.550000], [126.905000, 37.551500]]}
    },
    {
      "type": "Feature",
      "properties": {
        "feature_type": "edge", "edge_id": "demo_edge_02", "from_node": "n2",
        "to_node": "n4", "distance_m": 600, "display_name": "망원로 햇빛 구간",
        "walkable": true, "bidirectional": true
      },
      "geometry": {"type": "LineString", "coordinates": [[126.905000, 37.551500], [126.900000, 37.555000]]}
    },
    {
      "type": "Feature",
      "properties": {
        "feature_type": "edge", "edge_id": "demo_edge_03", "from_node": "n1",
        "to_node": "n3", "distance_m": 700, "display_name": "그늘길 서쪽 구간",
        "walkable": true, "bidirectional": true
      },
      "geometry": {"type": "LineString", "coordinates": [[126.910000, 37.550000], [126.908000, 37.553000], [126.907000, 37.556000]]}
    },
    {
      "type": "Feature",
      "properties": {
        "feature_type": "edge", "edge_id": "demo_edge_04", "from_node": "n3",
        "to_node": "n4", "distance_m": 700, "display_name": "한강공원 그늘 구간",
        "walkable": true, "bidirectional": true
      },
      "geometry": {"type": "LineString", "coordinates": [[126.907000, 37.556000], [126.903000, 37.557000], [126.900000, 37.555000]]}
    },
    {
      "type": "Feature",
      "properties": {
        "feature_type": "edge", "edge_id": "demo_edge_05", "from_node": "n1",
        "to_node": "n5", "distance_m": 650, "display_name": "주택가 혼합 그늘 구간",
        "walkable": true, "bidirectional": true
      },
      "geometry": {"type": "LineString", "coordinates": [[126.910000, 37.550000], [126.905000, 37.554000]]}
    },
    {
      "type": "Feature",
      "properties": {
        "feature_type": "edge", "edge_id": "demo_edge_06", "from_node": "n5",
        "to_node": "n4", "distance_m": 650, "display_name": "망원동 우회 구간",
        "walkable": true, "bidirectional": true
      },
      "geometry": {"type": "LineString", "coordinates": [[126.905000, 37.554000], [126.900000, 37.555000]]}
    }
  ]
}
