{"type": "Feature", "properties": {"coverage_id": "songpa-live-v1", "name": "서울특별시 송파구 PawSafe 분석 범위", "is_demo": false}, "geometry": {"type": "Polygon", "coordinates": [[[127.06659220000002, 37.524881], [127.0668037, 37.5233479], [127.06714249999999, 37.52042649999999], [127.0672335, 37.51948109999999], [127.0682239, 37.513264], [127.06867530000001, 37.51029009999999], [127.06897800000002, 37.5083283], [127.0693221, 37.5059347], [127.0696145, 37.5047789], [127.0699337, 37.504049], [127.07022130000001, 37.50367509999999], [127.07049970000001, 37.5033958], [127.0708158, 37.5031336], [127.07201970000001, 37.50247869999999], [127.07312680000001, 37.502188900000014], [127.07340249999999, 37.5021351], [127.0769705, 37.5015873], [127.07765310000002, 37.5014977], [127.07823, 37.501422100000006], [127.07944910000002, 37.50121810000001], [127.08091740000002, 37.50088699999999], [127.08233219999998, 37.5004816], [127.0842539, 37.4999853], [127.08571010000001, 37.49955330000001], [127.0880502, 37.4987791], [127.0886612, 37.498599299999995], [127.09185970000001, 37.4975705], [127.0930411, 37.4972955], [127.09650610000001, 37.4962271], [127.0992234, 37.4952372], [127.10065639999999, 37.49416430000001], [127.1018674, 37.493546599999995], [127.1025281, 37.49320569999999], [127.103468, 37.49280420000001], [127.1053658, 37.4920645], [127.10634090000002, 37.491423], [127.10693779999998, 37.490722700000006], [127.1078782, 37.48922840000001], [127.1092589, 37.4878119], [127.1110954, 37.4855177], [127.1116362, 37.4848676], [127.11182629999999, 37.4846464], [127.11197459999998, 37.48448950000001], [127.11212129999998, 37.48428220000001], [127.1122381, 37.4840391], [127.11233450000002, 37.4834362], [127.1123657, 37.4832028], [127.112512, 37.482633500000006], [127.1131253, 37.4816737], [127.1141553, 37.4807805], [127.11503770000002, 37.4799262], [127.11569240000001, 37.47897460000001], [127.11608340000001, 37.478070699999996], [127.1163453, 37.477591200000006], [127.11674, 37.477166499999996], [127.11765940000001, 37.4760978], [127.1194818, 37.47294479999999], [127.1214887, 37.4704394], [127.1226466, 37.46879969999999], [127.12300069999999, 37.46780760000001], [127.12281280000002, 37.46701229999999], [127.12481160000002, 37.467360899999996], [127.1254758, 37.46744820000001], [127.12648660000002, 37.4675446], [127.12653290000002, 37.4681655], [127.1265658, 37.4687055], [127.12706460000001, 37.4685159], [127.1282871, 37.468285600000016], [127.12862730000002, 37.468171500000004], [127.12935310000002, 37.467854100000004], [127.13042129999998, 37.467637499999995], [127.13072, 37.4676094], [127.13106740000002, 37.4677277], [127.13165340000002, 37.467926600000006], [127.1322618, 37.4681362], [127.1326562, 37.468233000000005], [127.1323139, 37.46882870000001], [127.13186830000001, 37.4694461], [127.1319715, 37.4695497], [127.13221020000002, 37.469896799999994], [127.13245510000002, 37.47027730000001], [127.13261290000001, 37.4705799], [127.13271930000002, 37.470859], [127.13275969999998, 37.4711012], [127.132758, 37.4713142], [127.1327492, 37.4715075], [127.1327031, 37.47172280000001], [127.13263330000001, 37.4719999], [127.13252560000001, 37.472277600000005], [127.1324676, 37.47257009999999], [127.13246559999999, 37.4729402], [127.13260179999999, 37.4747053], [127.134589, 37.4743702], [127.13536570000001, 37.4742756], [127.1360895, 37.4742401], [127.1374617, 37.47420610000001], [127.1390339, 37.47415449999999], [127.1408158, 37.4740868], [127.14207390000001, 37.4740527], [127.1434283, 37.4739967], [127.14696390000002, 37.4738471], [127.14699429999999, 37.47453250000001], [127.1470103, 37.47469040000001], [127.1470438, 37.47514420000001], [127.1470959, 37.475655599999996], [127.1471574, 37.4765223], [127.1471802, 37.4768976], [127.1472093, 37.47725499999999], [127.1472368, 37.4778417], [127.14726100000001, 37.4782127], [127.14728380000001, 37.4786105], [127.14734269999998, 37.47971089999999], [127.14739089999999, 37.48048649999999], [127.1474594, 37.4815904], [127.1474643, 37.4816544], [127.14747100000001, 37.4817184], [127.1474784, 37.4817741], [127.1474795, 37.4817822], [127.14748710000002, 37.481829], [127.1474898, 37.48184590000001], [127.1475018, 37.4819094], [127.1475041, 37.48192000000001], [127.14751300000002, 37.4819627], [127.1475339, 37.48204770000001], [127.14755809999998, 37.48213210000001], [127.1475855, 37.48221590000001], [127.14761590000002, 37.482299], [127.14764960000001, 37.48238140000001], [127.1476863, 37.48246290000001], [127.1477262, 37.4825435], [127.1477691, 37.482623], [127.14781489999999, 37.482701500000005], [127.14786370000002, 37.4827789], [127.14788950000002, 37.482817], [127.14795610000002, 37.482915100000014], [127.1481059, 37.48313589999999], [127.14819080000001, 37.4832612], [127.1482228, 37.4833606], [127.1482255, 37.4833692], [127.14839629999999, 37.483620900000005], [127.14856700000001, 37.483872600000005], [127.1486719, 37.484034199999996], [127.14909770000001, 37.48390010000001], [127.1492701, 37.4841417], [127.1494127, 37.4843518], [127.1494663, 37.484427800000006], [127.149922, 37.48490670000001], [127.1501225, 37.485042], [127.1503694, 37.4852087], [127.1504085, 37.48523500000001], [127.1515434, 37.48585669999999], [127.1516744, 37.4858956], [127.15205620000002, 37.48610479999999], [127.15240220000001, 37.486294400000006], [127.1529635, 37.4866019], [127.1531627, 37.4866891], [127.1535872, 37.4869216], [127.1537414, 37.4870608], [127.1553422, 37.48793760000001], [127.15547320000002, 37.48797660000001], [127.1555574, 37.488022699999995], [127.1558551, 37.4881857], [127.15620119999998, 37.488375299999994], [127.1563216, 37.4884413], [127.1564127, 37.4884912], [127.15661120000001, 37.488578], [127.15688189999999, 37.4887263], [127.15691550000001, 37.488744700000005], [127.15703490000001, 37.4888101], [127.15721019999998, 37.4889259], [127.15723250000002, 37.48894009999999], [127.15747170000002, 37.489071200000005], [127.1578179, 37.4892608], [127.1583504, 37.4895524], [127.1583845, 37.4895711], [127.1584233, 37.4896076], [127.1584669, 37.4896379], [127.15848550000001, 37.4896494], [127.15852330000001, 37.48967199999999], [127.1584808, 37.48971989999999], [127.1584634, 37.48974319999999], [127.1584482, 37.4897751], [127.15843200000002, 37.489806200000004], [127.1584278, 37.4898146], [127.1584089, 37.489812], [127.1584058, 37.48983680000001], [127.1583819, 37.4898947], [127.15832179999998, 37.489894500000005], [127.15829100000002, 37.489894400000004], [127.1582907, 37.4898944], [127.15816570000001, 37.4898949], [127.1581386, 37.4898948], [127.1580749, 37.48989439999999], [127.157918, 37.4898942], [127.1578817, 37.4898959], [127.1575904, 37.48990930000001], [127.15743750000001, 37.4899403], [127.1574773, 37.49001390000001], [127.15753590000001, 37.4900752], [127.15762209999998, 37.4901397], [127.1577046, 37.4902026], [127.15783540000001, 37.4902892], [127.1578988, 37.49031860000001], [127.15797579999999, 37.490363], [127.1580492, 37.4904229], [127.15812190000001, 37.4904774], [127.15815739999998, 37.4905364], [127.15817970000002, 37.4906078], [127.1581958, 37.49069320000001], [127.15822360000001, 37.4908076], [127.15826469999999, 37.4909811], [127.15829950000001, 37.4911167], [127.15833360000002, 37.4912794], [127.15837090000001, 37.4914312], [127.1584158, 37.49163840000001], [127.15847689999998, 37.4919484], [127.1584976, 37.4920406], [127.1585213, 37.4921038], [127.1585712, 37.49219690000001], [127.1586648, 37.49240230000001], [127.158741, 37.4925452], [127.1588391, 37.492704999999994], [127.1589036, 37.49278910000001], [127.15899230000001, 37.4929024], [127.1590506, 37.49297350000001], [127.1591463, 37.4930978], [127.15931599999999, 37.4932793], [127.15947709999999, 37.4934363], [127.15962539999998, 37.493579499999996], [127.1597137, 37.4936865], [127.1597856, 37.4937841], [127.15987889999998, 37.4939306], [127.15996760000002, 37.4940931], [127.16005619999999, 37.4943563], [127.16007440000001, 37.4944928], [127.16008700000002, 37.49467430000001], [127.1600611, 37.4949628], [127.16002950000001, 37.49522530000001], [127.16001870000001, 37.4952752], [127.1600092, 37.4953549], [127.15998860000002, 37.4954764], [127.159968, 37.4956365], [127.15995209999998, 37.4957226], [127.15994489999999, 37.4957783], [127.1599077, 37.49609770000001], [127.15988730000001, 37.4963119], [127.1598655, 37.4965188], [127.159869, 37.4966696], [127.1598924, 37.4968048], [127.15992050000001, 37.4969109], [127.15996009999999, 37.49700130000001], [127.16002190000002, 37.49716070000001], [127.1600868, 37.49731309999999], [127.1601374, 37.4974425], [127.1601778, 37.49754370000001], [127.1602411, 37.497686], [127.16030939999999, 37.497800500000004], [127.16037479999999, 37.4979081], [127.16043300000001, 37.498003900000015], [127.16053, 37.498181900000006], [127.16059829999999, 37.4983273], [127.160695, 37.49853340000001], [127.1607946, 37.4987151], [127.16086149999998, 37.4988434], [127.16094309999998, 37.4990416], [127.16096589999998, 37.4990983], [127.16101210000001, 37.4992304], [127.1610392, 37.4993429], [127.1610701, 37.4994683], [127.1610907, 37.4995865], [127.1611151, 37.499759899999994], [127.16114470000001, 37.499966799999996], [127.16115270000002, 37.5001774], [127.1611433, 37.50033489999999], [127.1611262, 37.50043500000001], [127.160966, 37.5006055], [127.1607319, 37.5008281], [127.16046360000001, 37.501125200000004], [127.1593765, 37.501383], [127.1591026, 37.50181130000001], [127.1590266, 37.5019301], [127.15899940000001, 37.5019943], [127.1588362, 37.502379399999995], [127.15765980000002, 37.503169], [127.15650330000001, 37.5019058], [127.15570289999998, 37.5021533], [127.15404039999999, 37.5026813], [127.1533009, 37.50272760000001], [127.1528571, 37.503089800000005], [127.1526121, 37.503269800000005], [127.1519376, 37.5034086], [127.1517561, 37.50338159999999], [127.1513559, 37.5034411], [127.1508834, 37.503614], [127.1508038, 37.50367109999999], [127.15054059999999, 37.5041833], [127.15048060000001, 37.50442679999999], [127.15032960000002, 37.504601399999984], [127.1502631, 37.50467830000001], [127.15004190000002, 37.50458080000001], [127.1493802, 37.5041985], [127.14923370000001, 37.50409890000001], [127.14907740000001, 37.5039927], [127.1490305, 37.5039608], [127.14890820000001, 37.5038893], [127.1487048, 37.5037732], [127.14854330000001, 37.5036548], [127.1484957, 37.5036406], [127.1482552, 37.503571400000006], [127.1480349, 37.5035056], [127.147894, 37.5033951], [127.1477628, 37.503268000000006], [127.1477306, 37.5032445], [127.1477163, 37.5032338], [127.1476973, 37.5032399], [127.14753430000002, 37.5032868], [127.1472596, 37.5033658], [127.1472428, 37.50336060000001], [127.1470818, 37.5033113], [127.14687510000002, 37.5032631], [127.14644610000002, 37.503229600000004], [127.14624210000001, 37.503277100000005], [127.1460518, 37.5033614], [127.1459282, 37.50335619999999], [127.14568010000002, 37.503482500000004], [127.14547670000002, 37.5036588], [127.1452077, 37.5038345], [127.1451852, 37.50386530000001], [127.1451012, 37.5039715], [127.14502940000001, 37.504064500000005], [127.145005, 37.504086], [127.14493670000002, 37.504136], [127.1448094, 37.50419160000001], [127.1446872, 37.50422739999999], [127.1446675, 37.504234800000006], [127.1446305, 37.504248399999994], [127.14451060000002, 37.5042924], [127.14439120000002, 37.504417], [127.1442465, 37.5045656], [127.14423940000002, 37.50456479999999], [127.1440686, 37.5045459], [127.1438301, 37.50452010000001], [127.14373870000001, 37.50451009999999], [127.14369400000001, 37.5045052], [127.14356710000001, 37.5044914], [127.14349030000001, 37.5045235], [127.14336909999999, 37.504574], [127.1431328, 37.5046726], [127.1429873, 37.5047319], [127.1422858, 37.504995799999996], [127.1422501, 37.5050729], [127.142185, 37.50517299999999], [127.1420684, 37.50520850000001], [127.14179570000002, 37.5052557], [127.1416909, 37.5052661], [127.1415051, 37.5053145], [127.1413726, 37.50539500000001], [127.1413017, 37.5054028], [127.14129479999998, 37.5055131], [127.14115550000001, 37.505565600000004], [127.14110180000002, 37.505874], [127.1408493, 37.505888600000006], [127.1407995, 37.50593090000001], [127.1408056, 37.5059843], [127.1409876, 37.5061584], [127.14114329999998, 37.50629240000001], [127.14126680000001, 37.50643010000001], [127.14128509999999, 37.50645250000001], [127.14130460000001, 37.5064765], [127.14146650000002, 37.50663140000001], [127.14181790000002, 37.5070056], [127.14182540000002, 37.507137900000004], [127.1416579, 37.5073116], [127.1415027, 37.5074485], [127.14116720000001, 37.50762259999999], [127.1411277, 37.5076241], [127.1408256, 37.5078858], [127.1406563, 37.508011800000006], [127.14051799999999, 37.5082239], [127.14051710000001, 37.508367099999994], [127.14015940000002, 37.5084802], [127.1400393, 37.5085255], [127.14005650000001, 37.5085735], [127.13993790000002, 37.508618399999996], [127.1399721, 37.5087028], [127.14000310000002, 37.5087897], [127.14008890000001, 37.5089824], [127.14010729999998, 37.5090054], [127.14012499999998, 37.509036800000004], [127.14012630000002, 37.50906680000001], [127.1401254, 37.509098200000004], [127.1401302, 37.5091802], [127.14009310000002, 37.5092353], [127.1401626, 37.5093525], [127.1401648, 37.5094003], [127.14018559999998, 37.50943590000001], [127.14025790000001, 37.5094375], [127.14028129999998, 37.50961170000001], [127.1402771, 37.5098638], [127.14032500000002, 37.5099305], [127.1403924, 37.50999240000001], [127.1404229, 37.5100335], [127.1404218, 37.5100932], [127.1404209, 37.5101596], [127.14040360000001, 37.51027390000001], [127.1406774, 37.51029689999999], [127.1407485, 37.510329199999994], [127.14096559999999, 37.510397100000006], [127.14108800000001, 37.5103797], [127.14134099999998, 37.51097969999999], [127.141213, 37.511026300000005], [127.1410942, 37.5110825], [127.1411004, 37.5111915], [127.1411116, 37.51127090000001], [127.1411431, 37.51138050000001], [127.14119989999999, 37.5115969], [127.1412174, 37.511683000000005], [127.1412328, 37.51182549999999], [127.14126860000002, 37.5121207], [127.1413113, 37.512327600000006], [127.1413342, 37.5123641], [127.1414116, 37.512421], [127.14152370000001, 37.5124515], [127.14168680000002, 37.512454], [127.1419433, 37.51244560000001], [127.1420807, 37.51278179999999], [127.1428199, 37.5126787], [127.14335520000002, 37.5126145], [127.1435456, 37.5125896], [127.14354999999999, 37.5126659], [127.14348910000001, 37.5129206], [127.14345090000002, 37.513080099999996], [127.14343840000001, 37.513158000000004], [127.14341670000002, 37.513317400000005], [127.1434163, 37.5134114], [127.14343269999999, 37.5135231], [127.14343800000002, 37.51358090000001], [127.1434388, 37.5136591], [127.1434353, 37.5137375], [127.14345340000001, 37.5138707], [127.1433606, 37.5138983], [127.1432, 37.5139668], [127.1430587, 37.5140304], [127.14290550000001, 37.5141371], [127.14266760000001, 37.51420100000001], [127.14274800000001, 37.514382700000006], [127.1423296, 37.514543700000004], [127.1422193, 37.51465580000001], [127.141669, 37.514893400000005], [127.14118970000001, 37.5150983], [127.14097289999998, 37.51527659999999], [127.1407259, 37.515460499999996], [127.14077149999999, 37.5155739], [127.1414098, 37.5155737], [127.14156719999998, 37.515621100000004], [127.1417807, 37.5156306], [127.14205010000002, 37.51563959999999], [127.1421745, 37.5156264], [127.14239130000001, 37.5155863], [127.14251159999999, 37.5155782], [127.14268250000002, 37.515584000000004], [127.1428869, 37.5155893], [127.14304110000002, 37.51558430000001], [127.1432375, 37.51557720000001], [127.1439279, 37.5156677], [127.14410689999998, 37.515630800000004], [127.1443136, 37.515622199999996], [127.1445201, 37.5156095], [127.14488569999999, 37.515506400000014], [127.1453094, 37.5154547], [127.1456077, 37.5154388], [127.1455802, 37.5156373], [127.1455402, 37.515810599999995], [127.1454589, 37.5161177], [127.14546870000001, 37.516467299999995], [127.1453995, 37.51656930000001], [127.14534059999998, 37.5166938], [127.1452864, 37.516872600000006], [127.1450415, 37.516906799999994], [127.1445849, 37.5169602], [127.14430240000002, 37.516987000000015], [127.14406, 37.5170267], [127.1438858, 37.5170642], [127.14365230000001, 37.5171281], [127.14341, 37.51720830000001], [127.1425048, 37.51761450000001], [127.14171080000001, 37.51797229999999], [127.1417059, 37.51797229999999], [127.1413996, 37.51811150000001], [127.1408159, 37.51836550000001], [127.1402892, 37.5185749], [127.13997220000002, 37.5187193], [127.1393821, 37.518994], [127.13900530000001, 37.5191509], [127.13855880000001, 37.5193492], [127.13815730000002, 37.5195247], [127.13770339999999, 37.5197248], [127.13766150000001, 37.519743299999995], [127.1369877, 37.52004019999999], [127.13694949999999, 37.520057200000004], [127.13648650000002, 37.5202625], [127.1364687, 37.520270399999994], [127.13561649999998, 37.5206483], [127.13558799999998, 37.52066090000001], [127.135571, 37.520668500000006], [127.13513490000001, 37.5208638], [127.1351095, 37.5208752], [127.13496309999998, 37.5209506], [127.1342708, 37.521255800000006], [127.13386820000001, 37.52143330000001], [127.13229159999999, 37.5221299], [127.13201010000002, 37.5222543], [127.1315363, 37.5224637], [127.13107590000001, 37.5226671], [127.1297494, 37.5232531], [127.12940380000002, 37.5234057], [127.1287049, 37.5237145], [127.12846959999999, 37.52381849999999], [127.1275517, 37.52422399999999], [127.1274886, 37.52425190000001], [127.1254026, 37.52517329999999], [127.12522779999999, 37.5252505], [127.12296680000001, 37.526249000000014], [127.1221742, 37.5266341], [127.1207735, 37.52725889999999], [127.11929070000001, 37.5278726], [127.1192685, 37.5278825], [127.11909260000002, 37.527960199999995], [127.1198722, 37.5292334], [127.1201352, 37.5296629], [127.1203556, 37.5300693], [127.1204144, 37.53018320000001], [127.12048629999998, 37.5303414], [127.1206052, 37.5306286], [127.120667, 37.5308076], [127.12073499999998, 37.5310204], [127.120913, 37.5315676], [127.12117210000001, 37.5323682], [127.12140489999999, 37.5330849], [127.12151320000001, 37.5333725], [127.1218808, 37.53437859999999], [127.12221640000001, 37.53529410000001], [127.1224905, 37.5360394], [127.1226037, 37.536354], [127.12283900000001, 37.5370039], [127.1229579, 37.5373243], [127.1230467, 37.5375664], [127.12343570000002, 37.538638500000005], [127.12272520000002, 37.5388507], [127.1223847, 37.538974], [127.12203379999998, 37.53913150000001], [127.12170010000001, 37.539302400000004], [127.1216093, 37.5393633], [127.12135309999998, 37.5395305], [127.1208971, 37.5398728], [127.12037190000001, 37.5402284], [127.11991199999999, 37.540497], [127.1196256, 37.5406548], [127.11929759999998, 37.5408098], [127.1188716, 37.54096510000001], [127.11727050000002, 37.54143800000001], [127.1166305, 37.5416322], [127.1161177, 37.54177940000001], [127.11566740000002, 37.5419113], [127.11528050000001, 37.54201270000001], [127.11554149999999, 37.542349400000006], [127.10951190000002, 37.5440329], [127.1082503, 37.5421081], [127.1050037, 37.5378992], [127.1022863, 37.5356397], [127.0998866, 37.5336311], [127.09701830000002, 37.531562599999994], [127.0937317, 37.529192099999996], [127.09030730000002, 37.526784], [127.0899769, 37.5266046], [127.08986009999998, 37.5265412], [127.0871734, 37.5250827], [127.07947560000001, 37.5227725], [127.0727672, 37.5233489], [127.07180999999999, 37.5234311], [127.06659220000002, 37.524881]]]}}